[{"OBJECT_NAME":"NEXTSAT-2","OBJECT_ID":"2023-072A","EPOCH":"2026-03-09T23:10:55.073280","MEAN_MOTION":15.26393087,"ECCENTRICITY":0.00062633,"INCLINATION":97.5306,"RA_OF_ASC_NODE":265.1019,"ARG_OF_PERICENTER":22.4193,"MEAN_ANOMALY":337.7318,"EPHEMERIS_TYPE":0,"CLASSIFICATION_TYPE":"U","NORAD_CAT_ID":56743,"ELEMENT_SET_NO":999,"REV_AT_EPOCH":15445,"BSTAR":0.00056400163,"MEAN_MOTION_DOT":0.00014622,"MEAN_MOTION_DDOT":0},{"OBJECT_NAME":"STARLINK-35782","OBJECT_ID":"2025-303V","EPOCH":"2026-03-09T01:32:42.171936","MEAN_MOTION":15.27563799,"ECCENTRICITY":0.00017939,"INCLINATION":43.003,"RA_OF_ASC_NODE":313.8882,"ARG_OF_PERICENTER":254.3565,"MEAN_ANOMALY":105.7089,"EPHEMERIS_TYPE":0,"CLASSIFICATION_TYPE":"U","NORAD_CAT_ID":67182,"ELEMENT_SET_NO":999,"REV_AT_EPOCH":1264,"BSTAR":0.00088479998,"MEAN_MOTION_DOT":0.00024154,"MEAN_MOTION_DDOT":0}]
